{
  "type": "FeatureCollection",
  "features": [
    {
      "type": "Feature",
      "properties": {
        "norad_id": 58647,
        "name": "TIANMU-1 13",
        "group": "weather",
        "lat": 81.34572694025586,
        "lon": -103.27971696448328,
        "alt_km": 486.5153749913379,
        "timestamp": "2025-12-25T03:55:55.949313+00:00",
        "meta_object_name": "TIANMU-1 13",
        "meta_object_id": "2023-205C",
        "meta_epoch": "2025-12-24T21:13:05.244672",
        "meta_mean_motion": 15.24671621,
        "meta_eccentricity": 0.000664,
        "meta_inclination": 97.3612,
        "meta_ra_of_asc_node": 18.3014,
        "meta_arg_of_pericenter": 214.1212,
        "meta_mean_anomaly": 145.96,
        "meta_ephemeris_type": 0,
        "meta_classification_type": "U",
        "meta_norad_cat_id": 58647,
        "meta_element_set_no": 999,
        "meta_rev_at_epoch": 11092,
        "meta_bstar": 0.00027396,
        "meta_mean_motion_dot": 6.703e-05,
        "meta_mean_motion_ddot": 0,
        "tle_line1": "1 58647U 23205C   25358.88408848  .00006703  00000+0  27396-3 0  9998",
        "tle_line2": "2 58647  97.3612  18.3014 0006640 214.1212 145.9600 15.24671621110929"
      },
      "geometry": {
        "type": "Point",
        "coordinates": [
          -103.27971696448328,
          81.34572694025586
        ]
      }
    },
    {
      "type": "Feature",
      "properties": {
        "norad_id": 58648,
        "name": "TIANMU-1 14",
        "group": "weather",
        "lat": -4.940689388675035,
        "lon": -162.7261125905332,
        "alt_km": 491.3745463219657,
        "timestamp": "2025-12-25T03:55:55.949323+00:00",
        "meta_object_name": "TIANMU-1 14",
        "meta_object_id": "2023-205D",
        "meta_epoch": "2025-12-24T20:49:22.576224",
        "meta_mean_motion": 15.24654907,
        "meta_eccentricity": 0.0007329,
        "meta_inclination": 97.3545,
        "meta_ra_of_asc_node": 17.6228,
        "meta_arg_of_pericenter": 220.3601,
        "meta_mean_anomaly": 139.7093,
        "meta_ephemeris_type": 0,
        "meta_classification_type": "U",
        "meta_norad_cat_id": 58648,
        "meta_element_set_no": 999,
        "meta_rev_at_epoch": 11092,
        "meta_bstar": 0.00028267,
        "meta_mean_motion_dot": 6.916e-05,
        "meta_mean_motion_ddot": 0,
        "tle_line1": "1 58648U 23205D   25358.86762241  .00006916  00000+0  28267-3 0  9991",
        "tle_line2": "2 58648  97.3545  17.6228 0007329 220.3601 139.7093 15.24654907110925"
      },
      "geometry": {
        "type": "Point",
        "coordinates": [
          -162.7261125905332,
          -4.940689388675035
        ]
      }
    },
    {
      "type": "Feature",
      "properties": {
        "norad_id": 58660,
        "name": "TIANMU-1 19",
        "group": "weather",
        "lat": -50.21256922505917,
        "lon": -78.84865272303838,
        "alt_km": 485.70645509846054,
        "timestamp": "2025-12-25T03:55:55.949334+00:00",
        "meta_object_name": "TIANMU-1 19",
        "meta_object_id": "2023-208A",
        "meta_epoch": "2025-12-24T20:38:20.704704",
        "meta_mean_motion": 15.28065927,
        "meta_eccentricity": 0.000477,
        "meta_inclination": 97.439,
        "meta_ra_of_asc_node": 109.8747,
        "meta_arg_of_pericenter": 201.5276,
        "meta_mean_anomaly": 158.5763,
        "meta_ephemeris_type": 0,
        "meta_classification_type": "U",
        "meta_norad_cat_id": 58660,
        "meta_element_set_no": 999,
        "meta_rev_at_epoch": 11067,
        "meta_bstar": 0.00037585,
        "meta_mean_motion_dot": 0.00010219,
        "meta_mean_motion_ddot": 0,
        "tle_line1": "1 58660U 23208A   25358.85996186  .00010219  00000+0  37585-3 0  9998",
        "tle_line2": "2 58660  97.4390 109.8747 0004770 201.5276 158.5763 15.28065927110671"
      },
      "geometry": {
        "type": "Point",
        "coordinates": [
          -78.84865272303838,
          -50.21256922505917
        ]
      }
    },
    {
      "type": "Feature",
      "properties": {
        "norad_id": 58661,
        "name": "TIANMU-1 20",
        "group": "weather",
        "lat": -1.9779630529313652,
        "lon": 110.89605993592397,
        "alt_km": 485.11575602906396,
        "timestamp": "2025-12-25T03:55:55.949343+00:00",
        "meta_object_name": "TIANMU-1 20",
        "meta_object_id": "2023-208B",
        "meta_epoch": "2025-12-24T20:05:20.118624",
        "meta_mean_motion": 15.29256139,
        "meta_eccentricity": 0.000679,
        "meta_inclination": 97.4327,
        "meta_ra_of_asc_node": 110.3112,
        "meta_arg_of_pericenter": 215.7557,
        "meta_mean_anomaly": 144.3229,
        "meta_ephemeris_type": 0,
        "meta_classification_type": "U",
        "meta_norad_cat_id": 58661,
        "meta_element_set_no": 999,
        "meta_rev_at_epoch": 11074,
        "meta_bstar": 0.00034263,
        "meta_mean_motion_dot": 9.658e-05,
        "meta_mean_motion_ddot": 0,
        "tle_line1": "1 58661U 23208B   25358.83703841  .00009658  00000+0  34263-3 0  9996",
        "tle_line2": "2 58661  97.4327 110.3112 0006790 215.7557 144.3229 15.29256139110744"
      },
      "geometry": {
        "type": "Point",
        "coordinates": [
          110.89605993592397,
          -1.9779630529313652
        ]
      }
    },
    {
      "type": "Feature",
      "properties": {
        "norad_id": 58662,
        "name": "TIANMU-1 21",
        "group": "weather",
        "lat": 63.25349080110466,
        "lon": -52.37389169720113,
        "alt_km": 464.5323988761311,
        "timestamp": "2025-12-25T03:55:55.949357+00:00",
        "meta_object_name": "TIANMU-1 21",
        "meta_object_id": "2023-208C",
        "meta_epoch": "2025-12-24T21:09:25.870752",
        "meta_mean_motion": 15.31805629,
        "meta_eccentricity": 0.0006451,
        "meta_inclination": 97.4377,
        "meta_ra_of_asc_node": 112.3189,
        "meta_arg_of_pericenter": 210.1513,
        "meta_mean_anomaly": 149.9357,
        "meta_ephemeris_type": 0,
        "meta_classification_type": "U",
        "meta_norad_cat_id": 58662,
        "meta_element_set_no": 999,
        "meta_rev_at_epoch": 11085,
        "meta_bstar": 0.00038675,
        "meta_mean_motion_dot": 0.00011811,
        "meta_mean_motion_ddot": 0,
        "tle_line1": "1 58662U 23208C   25358.88154943  .00011811  00000+0  38675-3 0  9990",
        "tle_line2": "2 58662  97.4377 112.3189 0006451 210.1513 149.9357 15.31805629110853"
      },
      "geometry": {
        "type": "Point",
        "coordinates": [
          -52.37389169720113,
          63.25349080110466
        ]
      }
    },
    {
      "type": "Feature",
      "properties": {
        "norad_id": 58663,
        "name": "TIANMU-1 22",
        "group": "weather",
        "lat": -40.25704874509082,
        "lon": -76.12041332289198,
        "alt_km": 486.92824850294073,
        "timestamp": "2025-12-25T03:55:55.949367+00:00",
        "meta_object_name": "TIANMU-1 22",
        "meta_object_id": "2023-208D",
        "meta_epoch": "2025-12-24T20:40:55.167168",
        "meta_mean_motion": 15.2780413,
        "meta_eccentricity": 0.0002963,
        "meta_inclination": 97.4384,
        "meta_ra_of_asc_node": 109.9299,
        "meta_arg_of_pericenter": 224.7775,
        "meta_mean_anomaly": 135.3226,
        "meta_ephemeris_type": 0,
        "meta_classification_type": "U",
        "meta_norad_cat_id": 58663,
        "meta_element_set_no": 999,
        "meta_rev_at_epoch": 11068,
        "meta_bstar": 0.0003426,
        "meta_mean_motion_dot": 9.232e-05,
        "meta_mean_motion_ddot": 0,
        "tle_line1": "1 58663U 23208D   25358.86174962  .00009232  00000+0  34260-3 0  9992",
        "tle_line2": "2 58663  97.4384 109.9299 0002963 224.7775 135.3226 15.27804130110687"
      },
      "geometry": {
        "type": "Point",
        "coordinates": [
          -76.12041332289198,
          -40.25704874509082
        ]
      }
    },
    {
      "type": "Feature",
      "properties": {
        "norad_id": 58700,
        "name": "TIANMU-1 15",
        "group": "weather",
        "lat": -26.352445023010485,
        "lon": -3.1364786007107845,
        "alt_km": 494.2921258390288,
        "timestamp": "2025-12-25T03:55:55.949377+00:00",
        "meta_object_name": "TIANMU-1 15",
        "meta_object_id": "2024-004A",
        "meta_epoch": "2025-12-24T20:43:40.598976",
        "meta_mean_motion": 15.24563705,
        "meta_eccentricity": 0.0006072,
        "meta_inclination": 97.4629,
        "meta_ra_of_asc_node": 180.2877,
        "meta_arg_of_pericenter": 238.5702,
        "meta_mean_anomaly": 121.4942,
        "meta_ephemeris_type": 0,
        "meta_classification_type": "U",
        "meta_norad_cat_id": 58700,
        "meta_element_set_no": 999,
        "meta_rev_at_epoch": 10919,
        "meta_bstar": 0.00030712,
        "meta_mean_motion_dot": 7.497e-05,
        "meta_mean_motion_ddot": 0,
        "tle_line1": "1 58700U 24004A   25358.86366434  .00007497  00000+0  30712-3 0  9995",
        "tle_line2": "2 58700  97.4629 180.2877 0006072 238.5702 121.4942 15.24563705109195"
      },
      "geometry": {
        "type": "Point",
        "coordinates": [
          -3.1364786007107845,
          -26.352445023010485
        ]
      }
    }
  ]
}